{"type": "FeatureCollection", "features": [ {"type": "Feature", "properties": {"norad_id": 33630, "name": "FENGYUN 1C DEB", "group": "fengyun-1c-debris", "lat": -52.99932491230628, "lon": -84.3120596159469, "alt_km": 925.3609908464468, "timestamp": "2025-12-27T12:55:14.792620+00:00", "meta": {"OBJECT_NAME": "FENGYUN 1C DEB", "OBJECT_ID": "1999-025DDP", "EPOCH": "2025-12-25T00:32:20.779008", "MEAN_MOTION": 14.17738798, "ECCENTRICITY": 0.01347576, "INCLINATION": 98.616, "RA_OF_ASC_NODE": 104.8539, "ARG_OF_PERICENTER": 32.9099, "MEAN_ANOMALY": 328.0377, "EPHEMERIS_TYPE": 0, "CLASSIFICATION_TYPE": "U", "NORAD_CAT_ID": 33630, "ELEMENT_SET_NO": 999, "REV_AT_EPOCH": 64585, "BSTAR": 0.000328385, "MEAN_MOTION_DOT": 6.9e-06, "MEAN_MOTION_DDOT": 0}, "tle": {"line1": "1 33630U 99025DDP 25359.02246272  .00000690  00000+0  32839-3 0  9991", "line2": "2 33630  98.6160 104.8539 0134757  32.9099 328.0377 14.17738798645859"}}, "geometry": {"type": "Point", "coordinates": [-84.3120596159469, -52.99932491230628]}}, {"type": "Feature", "properties": {"norad_id": 33633, "name": "FENGYUN 1C DEB", "group": "fengyun-1c-debris", "lat": 3.8153659861650717, "lon": 95.52838360913049, "alt_km": 844.6843671949391, "timestamp": "2025-12-27T12:55:14.792630+00:00", "meta": {"OBJECT_NAME": "FENGYUN 1C DEB", "OBJECT_ID": "1999-025DDS", "EPOCH": "2025-12-20T05:05:42.485856", "MEAN_MOTION": 14.19397127, "ECCENTRICITY": 0.00829513, "INCLINATION": 99.057, "RA_OF_ASC_NODE": 88.6497, "ARG_OF_PERICENTER": 129.8844, "MEAN_ANOMALY": 260.3067, "EPHEMERIS_TYPE": 0, "CLASSIFICATION_TYPE": "U", "NORAD_CAT_ID": 33633, "ELEMENT_SET_NO": 999, "REV_AT_EPOCH": 90817, "BSTAR": 0.0014541583, "MEAN_MOTION_DOT": 3.12e-05, "MEAN_MOTION_DDOT": 0}, "tle": {"line1": "1 33633U 99025DDS 25354.21229729  .00003120  00000+0  14542-2 0  9999", "line2": "2 33633  99.0570  88.6497 0082951 129.8844 260.3067 14.19397127908176"}}, "geometry": {"type": "Point", "coordinates": [95.52838360913049, 3.8153659861650717]}}, {"type": "Feature", "properties": {"norad_id": 33637, "name": "FENGYUN 1C DEB", "group": "fengyun-1c-debris", "lat": 81.46355647437188, "lon": -49.158503060883945, "alt_km": 704.6497957488218, "timestamp": "2025-12-27T12:55:14.792640+00:00", "meta": {"OBJECT_NAME": "FENGYUN 1C DEB", "OBJECT_ID": "1999-025DDW", "EPOCH": "2025-12-22T20:31:28.911936", "MEAN_MOTION": 14.36813194, "ECCENTRICITY": 0.008304, "INCLINATION": 98.4926, "RA_OF_ASC_NODE": 41.7001, "ARG_OF_PERICENTER": 121.6537, "MEAN_ANOMALY": 239.2783, "EPHEMERIS_TYPE": 0, "CLASSIFICATION_TYPE": "U", "NORAD_CAT_ID": 33637, "ELEMENT_SET_NO": 999, "REV_AT_EPOCH": 64983, "BSTAR": 0.0011662, "MEAN_MOTION_DOT": 3.541e-05, "MEAN_MOTION_DDOT": 0}, "tle": {"line1": "1 33637U 99025DDW 25356.85519574  .00003541  00000+0  11662-2 0  9992", "line2": "2 33637  98.4926  41.7001 0083040 121.6537 239.2783 14.36813194649839"}}, "geometry": {"type": "Point", "coordinates": [-49.158503060883945, 81.46355647437188]}}, {"type": "Feature", "properties": {"norad_id": 33638, "name": "FENGYUN 1C DEB", "group": "fengyun-1c-debris", "lat": -52.19922240055506, "lon": 59.39214686308063, "alt_km": 814.0620949434751, "timestamp": "2025-12-27T12:55:14.792651+00:00", "meta": {"OBJECT_NAME": "FENGYUN 1C DEB", "OBJECT_ID": "1999-025DDX", "EPOCH": "2025-12-22T12:31:35.618592", "MEAN_MOTION": 13.69332139, "ECCENTRICITY": 0.02639098, "INCLINATION": 98.4648, "RA_OF_ASC_NODE": 246.0451, "ARG_OF_PERICENTER": 246.8978, "MEAN_ANOMALY": 110.4157, "EPHEMERIS_TYPE": 0, "CLASSIFICATION_TYPE": "U", "NORAD_CAT_ID": 33638, "ELEMENT_SET_NO": 999, "REV_AT_EPOCH": 61049, "BSTAR": 0.000991659, "MEAN_MOTION_DOT": 1.061e-05, "MEAN_MOTION_DDOT": 0}, "tle": {"line1": "1 33638U 99025DDX 25356.52194003  .00001061  00000+0  99166-3 0  9994", "line2": "2 33638  98.4648 246.0451 0263909 246.8978 110.4157 13.69332139610498"}}, "geometry": {"type": "Point", "coordinates": [59.39214686308063, -52.19922240055506]}}, {"type": "Feature", "properties": {"norad_id": 33639, "name": "FENGYUN 1C DEB", "group": "fengyun-1c-debris", "lat": 4.847651634927016, "lon": 92.03761975922855, "alt_km": 776.4610050540359, "timestamp": "2025-12-27T12:55:14.792661+00:00", "meta": {"OBJECT_NAME": "FENGYUN 1C DEB", "OBJECT_ID": "1999-025DDY", "EPOCH": "2025-12-14T11:30:34.684704", "MEAN_MOTION": 14.40475035, "ECCENTRICITY": 0.00499213, "INCLINATION": 98.7123, "RA_OF_ASC_NODE": 79.4896, "ARG_OF_PERICENTER": 283.4225, "MEAN_ANOMALY": 76.1402, "EPHEMERIS_TYPE": 0, "CLASSIFICATION_TYPE": "U", "NORAD_CAT_ID": 33639, "ELEMENT_SET_NO": 999, "REV_AT_EPOCH": 60607, "BSTAR": 0.0023798225, "MEAN_MOTION_DOT": 7.641e-05, "MEAN_MOTION_DDOT": 0}, "tle": {"line1": "1 33639U 99025DDY 25348.47956811  .00007641  00000+0  23798-2 0  9990", "line2": "2 33639  98.7123  79.4896 0049921 283.4225  76.1402 14.40475035606072"}}, "geometry": {"type": "Point", "coordinates": [92.03761975922855, 4.847651634927016]}}, {"type": "Feature", "properties": {"norad_id": 33640, "name": "FENGYUN 1C DEB", "group": "fengyun-1c-debris", "lat": 61.200274802304435, "lon": 141.3647447988679, "alt_km": 667.8842595406659, "timestamp": "2025-12-27T12:55:14.792671+00:00", "meta": {"OBJECT_NAME": "FENGYUN 1C DEB", "OBJECT_ID": "1999-025DDZ", "EPOCH": "2025-12-25T13:52:55.245216", "MEAN_MOTION": 14.4593595, "ECCENTRICITY": 0.0091461, "INCLINATION": 98.8425, "RA_OF_ASC_NODE": 302.873, "ARG_OF_PERICENTER": 121.3276, "MEAN_ANOMALY": 239.6907, "EPHEMERIS_TYPE": 0, "CLASSIFICATION_TYPE": "U", "NORAD_CAT_ID": 33640, "ELEMENT_SET_NO": 999, "REV_AT_EPOCH": 92528, "BSTAR": 0.00047063, "MEAN_MOTION_DOT": 1.713e-05, "MEAN_MOTION_DDOT": 0}, "tle": {"line1": "1 33640U 99025DDZ 25359.57841719  .00001713  00000+0  47063-3 0  9991", "line2": "2 33640  98.8425 302.8730 0091461 121.3276 239.6907 14.45935950925287"}}, "geometry": {"type": "Point", "coordinates": [141.3647447988679, 61.200274802304435]}}, {"type": "Feature", "properties": {"norad_id": 33648, "name": "FENGYUN 1C DEB", "group": "fengyun-1c-debris", "lat": 25.98021778907168, "lon": -4.476681443356258, "alt_km": 865.8274556869719, "timestamp": "2025-12-27T12:55:14.792682+00:00", "meta": {"OBJECT_NAME": "FENGYUN 1C DEB", "OBJECT_ID": "1999-025DEH", "EPOCH": "2025-12-26T18:05:07.417248", "MEAN_MOTION": 14.11781557, "ECCENTRICITY": 0.00695153, "INCLINATION": 98.7198, "RA_OF_ASC_NODE": 359.0495, "ARG_OF_PERICENTER": 134.5995, "MEAN_ANOMALY": 226.0878, "EPHEMERIS_TYPE": 0, "CLASSIFICATION_TYPE": "U", "NORAD_CAT_ID": 33648, "ELEMENT_SET_NO": 999, "REV_AT_EPOCH": 64574, "BSTAR": 9.9708443e-05, "MEAN_MOTION_DOT": 1.44e-06, "MEAN_MOTION_DDOT": 0}, "tle": {"line1": "1 33648U 99025DEH 25360.75355807  .00000144  00000+0  99708-4 0  9990", "line2": "2 33648  98.7198 359.0495 0069515 134.5995 226.0878 14.11781557645744"}}, "geometry": {"type": "Point", "coordinates": [-4.476681443356258, 25.98021778907168]}}, {"type": "Feature", "properties": {"norad_id": 33650, "name": "FENGYUN 1C DEB", "group": "fengyun-1c-debris", "lat": 46.21873019141646, "lon": 156.58947706806558, "alt_km": 819.0273433601205, "timestamp": "2025-12-27T12:55:14.792692+00:00", "meta": {"OBJECT_NAME": "FENGYUN 1C DEB", "OBJECT_ID": "1999-025DEK", "EPOCH": "2025-12-24T05:11:24.590112", "MEAN_MOTION": 13.89212225, "ECCENTRICITY": 0.01495912, "INCLINATION": 98.9861, "RA_OF_ASC_NODE": 162.8878, "ARG_OF_PERICENTER": 47.7284, "MEAN_ANOMALY": 313.6448, "EPHEMERIS_TYPE": 0, "CLASSIFICATION_TYPE": "U", "NORAD_CAT_ID": 33650, "ELEMENT_SET_NO": 999, "REV_AT_EPOCH": 68968, "BSTAR": 0.00062187935, "MEAN_MOTION_DOT": 7.85e-06, "MEAN_MOTION_DDOT": 0}, "tle": {"line1": "1 33650U 99025DEK 25358.21625683  .00000785  00000+0  62188-3 0  9995", "line2": "2 33650  98.9861 162.8878 0149591  47.7284 313.6448 13.89212225689682"}}, "geometry": {"type": "Point", "coordinates": [156.58947706806558, 46.21873019141646]}}, {"type": "Feature", "properties": {"norad_id": 33651, "name": "FENGYUN 1C DEB", "group": "fengyun-1c-debris", "lat": 6.068435781969498, "lon": -132.26219912253532, "alt_km": 906.5804951179653, "timestamp": "2025-12-27T12:55:14.792702+00:00", "meta": {"OBJECT_NAME": "FENGYUN 1C DEB", "OBJECT_ID": "1999-025DEL", "EPOCH": "2025-12-24T09:43:13.346976", "MEAN_MOTION": 14.20363757, "ECCENTRICITY": 0.01172412, "INCLINATION": 98.655, "RA_OF_ASC_NODE": 43.7432, "ARG_OF_PERICENTER": 20.4722, "MEAN_ANOMALY": 340.1097, "EPHEMERIS_TYPE": 0, "CLASSIFICATION_TYPE": "U", "NORAD_CAT_ID": 33651, "ELEMENT_SET_NO": 999, "REV_AT_EPOCH": 64437, "BSTAR": 0.00014773014, "MEAN_MOTION_DOT": 2.96e-06, "MEAN_MOTION_DDOT": 0}, "tle": {"line1": "1 33651U 99025DEL 25358.40501559  .00000296  00000+0  14773-3 0  9996", "line2": "2 33651  98.6550  43.7432 0117241  20.4722 340.1097 14.20363757644375"}}, "geometry": {"type": "Point", "coordinates": [-132.26219912253532, 6.068435781969498]}}, {"type": "Feature", "properties": {"norad_id": 33655, "name": "FENGYUN 1C DEB", "group": "fengyun-1c-debris", "lat": 39.836140996520854, "lon": 61.23715880572721, "alt_km": 569.0764483214016, "timestamp": "2025-12-27T12:55:14.792713+00:00", "meta": {"OBJECT_NAME": "FENGYUN 1C DEB", "OBJECT_ID": "1999-025DEQ", "EPOCH": "2025-12-26T22:19:00.026688", "MEAN_MOTION": 14.98292926, "ECCENTRICITY": 0.0046163, "INCLINATION": 98.7997, "RA_OF_ASC_NODE": 67.9767, "ARG_OF_PERICENTER": 312.0794, "MEAN_ANOMALY": 47.6502, "EPHEMERIS_TYPE": 0, "CLASSIFICATION_TYPE": "U", "NORAD_CAT_ID": 33655, "ELEMENT_SET_NO": 999, "REV_AT_EPOCH": 96770, "BSTAR": 0.0021455, "MEAN_MOTION_DOT": 0.000261, "MEAN_MOTION_DDOT": 0}, "tle": {"line1": "1 33655U 99025DEQ 25360.92986142  .00026100  00000+0  21455-2 0  9991", "line2": "2 33655  98.7997  67.9767 0046163 312.0794  47.6502 14.98292926967706"}}, "geometry": {"type": "Point", "coordinates": [61.23715880572721, 39.836140996520854]}}]}